{"spkid": "54203035", "covariance": {"elements": [{"name": "e", "sigma": 1.16878902620904e-06, "units": null, "title": "eccentricity", "value": ".1956970091173237", "label": "e"}, {"title": "perihelion distance", "value": ".7958350310263163", "units": "au", "sigma": 1.22282912155216e-06, "name": "q", "label": "q"}, {"sigma": 6.48576772879588e-05, "name": "tp", "value": "2459626.386238274112", "title": "time of perihelion passage", "units": "TDB", "label": "tp"}, {"name": "om", "sigma": 1.80761139621008e-05, "units": "deg", "value": "20.85241145381515", "title": "longitude of the ascending node", "label": "node"}, {"sigma": 0.000118100641118021, "name": "w", "title": "argument of perihelion", "value": "136.7797584570057", "units": "deg", "label": "peri"}, {"title": "inclination", "value": "4.210416923617496", "units": "deg", "sigma": 3.09670404228242e-05, "name": "i", "label": "i"}], "data": [["1.366067787786681E-12", "-1.42919241633372E-12", "5.797345080827909E-11", "-4.983791122903708E-12", "1.301395411398452E-10", "3.512824561758122E-11"], ["-1.42919241633372E-12", "1.495311060516021E-12", "-6.099064233254505E-11", "5.257893233815624E-12", "-1.364400336399253E-10", "-3.678830970336062E-11"], ["5.797345080827909E-11", "-6.099064233254505E-11", "4.206518303189008E-9", "-4.285606427071365E-10", "7.011506760128756E-9", "1.6769643172101E-9"], ["-4.983791122903708E-12", "5.257893233815624E-12", "-4.285606427071365E-10", "3.267458959708556E-10", "-9.398613611605856E-10", "-1.798022364829152E-10"], ["1.301395411398452E-10", "-1.364400336399253E-10", "7.011506760128756E-9", "-9.398613611605856E-10", "1.39477614324877E-8", "3.533869885304952E-9"], ["3.512824561758122E-11", "-3.678830970336062E-11", "1.6769643172101E-9", "-1.798022364829152E-10", "3.533869885304952E-9", "9.589575925488292E-10"]], "labels": ["e", "q", "tp", "node", "peri", "i"], "epoch": "2459761.5"}, "elements": [{"label": "e", "value": ".1959331527643752", "title": "eccentricity", "units": null, "name": "e", "sigma": "1.1651E-6"}, {"label": "a", "sigma": "6.7999E-8", "name": "a", "units": "au", "value": ".9884562594557432", "title": "semi-major axis"}, {"sigma": "1.2058E-6", "name": "q", "value": ".7947849081708982", "title": "perihelion distance", "units": "au", "label": "q"}, {"value": "4.177623105347771", "title": "inclination; angle with respect to x-y ecliptic plane", "units": "deg", "name": "i", "sigma": "3.1437E-5", "label": "i"}, {"label": "node", "name": "om", "sigma": "1.7714E-5", "units": "deg", "title": "longitude of the ascending node", "value": "20.4465038811645"}, {"label": "peri", "units": "deg", "title": "argument of perihelion", "value": "137.2604093494751", "name": "w", "sigma": ".00010855"}, {"title": "mean anomaly", "value": "137.0820708555383", "units": "deg", "sigma": ".00013781", "name": "ma", "label": "M"}, {"label": "tp", "sigma": ".00012384", "name": "tp", "units": "TDB", "title": "time of perihelion passage", "value": "2461063.817546297800"}, {"name": "per", "sigma": "3.704E-5", "value": "358.9505398167396", "title": "sidereal orbital period", "units": "d", "label": "period"}, {"sigma": "1.0349E-7", "name": "n", "title": "mean motion", "value": "1.002923690221489", "units": "deg/d", "label": "n"}, {"name": "ad", "sigma": "8.1322E-8", "units": "au", "value": "1.182127610740588", "title": "aphelion distance", "label": "Q"}], "epoch": "2461200.5"}